[{"OBJECT_NAME":"GHOST-5","OBJECT_ID":"2024-043AJ","EPOCH":"2026-03-09T22:12:39.602304","MEAN_MOTION":15.40053236,"ECCENTRICITY":0.00079958,"INCLINATION":97.5429,"RA_OF_ASC_NODE":210.0004,"ARG_OF_PERICENTER":209.6762,"MEAN_ANOMALY":150.4031,"EPHEMERIS_TYPE":0,"CLASSIFICATION_TYPE":"U","NORAD_CAT_ID":59130,"ELEMENT_SET_NO":999,"REV_AT_EPOCH":11222,"BSTAR":0.00046979061,"MEAN_MOTION_DOT":0.00018732,"MEAN_MOTION_DDOT":0},{"OBJECT_NAME":"H-2A R\/B","OBJECT_ID":"2018-084L","EPOCH":"2026-03-09T14:28:20.133120","MEAN_MOTION":15.41344491,"ECCENTRICITY":0.0025468,"INCLINATION":98.8729,"RA_OF_ASC_NODE":285.9721,"ARG_OF_PERICENTER":25.6211,"MEAN_ANOMALY":334.6287,"EPHEMERIS_TYPE":0,"CLASSIFICATION_TYPE":"U","NORAD_CAT_ID":43682,"ELEMENT_SET_NO":999,"REV_AT_EPOCH":40576,"BSTAR":0.00049941,"MEAN_MOTION_DOT":0.0002099,"MEAN_MOTION_DDOT":0}]
